{"fetched_at":"2026-07-16T17:46:57.236Z","source":"https://celestrak.org/NORAD/elements/gp.php?NAME=SENTINEL&FORMAT=JSON","constellation":"sentinel-3","records":[{"OBJECT_NAME":"SENTINEL-3A","OBJECT_ID":"2016-011A","EPOCH":"2026-07-16T06:00:27.858816","CLASSIFICATION_TYPE":"U","MEAN_MOTION":14.26739936,"ECCENTRICITY":0.00013542,"INCLINATION":98.6237,"RA_OF_ASC_NODE":264.2145,"ARG_OF_PERICENTER":89.5572,"MEAN_ANOMALY":270.5763,"EPHEMERIS_TYPE":0,"NORAD_CAT_ID":41335,"ELEMENT_SET_NO":999,"REV_AT_EPOCH":54220,"BSTAR":0.000036891574,"MEAN_MOTION_DOT":4.6e-7,"MEAN_MOTION_DDOT":0},{"OBJECT_NAME":"SENTINEL-3B","OBJECT_ID":"2018-039A","EPOCH":"2026-07-16T05:21:47.464128","CLASSIFICATION_TYPE":"U","MEAN_MOTION":14.26736511,"ECCENTRICITY":0.00011661,"INCLINATION":98.6236,"RA_OF_ASC_NODE":264.3371,"ARG_OF_PERICENTER":119.9543,"MEAN_ANOMALY":240.1753,"EPHEMERIS_TYPE":0,"NORAD_CAT_ID":43437,"ELEMENT_SET_NO":999,"REV_AT_EPOCH":42826,"BSTAR":0.000036498009,"MEAN_MOTION_DOT":4.5e-7,"MEAN_MOTION_DDOT":0}]}
